# Made by eph2tle, compiled Sep 29 2024 11:19:35
# Run at Sat Oct 12 08:45:46 2024
#
# No updates         (until it comes back later in 2025)
#
#    The following TLEs (Two-Line Elements) were generated by fitting
# a numerically-integrated ephemeris,  based on the orbit given below,
# to the SDP4/SGP4 models.  Each TLE is good for the interval between
# its epoch and the epoch of the subsequent TLE (usually one day).
# The maximum deviation between the numerically integrated ephemerides
# and the TLE-based ephemeris, in kilometers,  is given for each TLE
# as the "worst residual".
#
#    This fitting is done using the 'eph2tle' code packaged with Find_Orb.
# The code has details on how the TLEs were computed :
#
#    https://github.com/Bill-Gray/find_orb/eph2tle.cpp
#
#    Be warned:  the error given is that between the numerically
# integrated ephems and the TLE model.  There will usually be at
# least some additional difference between the ephems and the actual
# motion of the satellite,  especially if the ephemerides are based
# on a short arc.  If the following orbital elements say something
# like "[based on] 10 observations 2015 Jan. 1-13",  and the TLEs
# are for 2015 May,  the extrapolation may be tenuous at best.  If
# your application requires a specific level of accuracy,  you may
# want to contact me;  I can give you some idea as to the fit of the
# underlying data (and possibly TLEs based on newer data).
#
#   You can usually find the underlying observational data,  and the
# fitted orbit,  residuals,  ephemerides,  and sometimes some comments
# about the object,  among the pages listed at
#
#    https://www.projectpluto.com/pluto/mpecs/pseudo.htm
#
#    WARNING:  for this object,  "normal" TLEs cannot be fitted.  (This
# usually means an object with an hyperbolic or nearly-parabolic orbit.)
# For this and similar cases,   an alternative model is used,  in which
# most of the traditional TLE data is replaced by six signed 8-digit hex
# numbers.  These six numbers are a state vector,  numerically integrated
# using a simplified force model.  This is necessary for objects at L2 or
# L1,  and sometimes for objects in high orbits where the SDP4/SGP4 model
# fails.  Some documentation is in 'get_el.cpp' in the source code at
# https://www.github.com/Bill-Gray/sat_code ; look for 'hex' in that file,
# with the actual integration done in 'sdp4.cpp'.  But be aware:  it's my
# own extension,  doesn't work with other code,  and is therefore used
# only when necessary.
#
#    Also,  if you use a TLE outside the "correct" time range (between
# its MJD and that of the next TLE),  all bets are off.  I've carefully
# computed and minimized the worst error over the "correct" time frame,
# but the ephemeris may (or may not) diverge wildly outside of it.
#
# Ephem range: 60587.000000 60676.000000 1.000000
# Created Sat Oct 12 08:45:32 2024
# Ephemeris start:  4 Oct 2024  0:00:00
# Ephemeris end:    1 Jan 2025  0:00:00
# Times are all TDT
# Positions/velocities are in equatorial J2000
# Orbital elements:  2024-179A = Vulcan Centaur test
#    Perihelion 2024 Jun 28.6219 +/- 0.000461 TT = 14:55:28 (JD 2460490.1219)
# Epoch 2024 Oct 11.0 TT = JDT 2460594.5   Earth MOID: 0.0000      Find_Orb
# M 104.1247486 +/- 0.00039           (J2000 ecliptic)
# n   0.9975723 +/- 8.06e-7           Peri.  254.8749 +/- 0.00015
# a   0.9919880 +/- 5.35e-7           Node    13.1132 +/- 0.000056
# e   0.051273 +/- 3.44e-6            Incl.    0.0357 +/- 0.0000025
# P   0.988/360.869d         H 26.15  G  0.15   U  3.3
# q 0.9411257 +/- 3.9e-6    Q 1.0428504 +/- 2.88e-6
# 67 of 75 observations 2024 Oct. 5-11; mean residual 0".160
#
# 1 NoradU COSPAR   Epoch.epoch     dn/dt/2  d2n/dt2/6 BSTAR    T El# C
# 2 NoradU Inclina RAAscNode Eccent  ArgPeri MeanAno  MeanMotion Rev# C

# Worst residual: 181.62 km
# MJD 60587.000000 (2024 Oct  4  0:00)
2024-179A = Vulcan Centaur test
1 61448U 24179A   24277.99919926 +001H6NLZ +001ZNSDR +001039NOH 24774
2 61448                          -000BQBT5 -000BAG5M -0005P2IS     05

# Worst residual: 0.97 km
# MJD 60588.000000 (2024 Oct  5  0:00)
2024-179A = Vulcan Centaur test
1 61448U 24179A   24278.99919926 +002NQHTD -0007RSIJ -0003IN3AH 24771
2 61448                          +000H7L62 +000140SK +0000MIJZ     05

# Worst residual: 2.43 km
# MJD 60589.000000 (2024 Oct  6  0:00)
2024-179A = Vulcan Centaur test
1 61448U 24179A   24279.99919926 +006ALLXO +0002P13W +00028W7RH 24774
2 61448                          +000DZFPF +00018FD1 +0000O9DD     04

# Worst residual: 4.10 km
# MJD 60590.000000 (2024 Oct  7  0:00)
2024-179A = Vulcan Centaur test
1 61448U 24179A   24280.99919926 +009IYBD2 +000DBNK0 +00081814H 24770
2 61448                          +000D2TFR +0001851I +0000NZ9Z     01

# Worst residual: 1.08 km
# MJD 60591.000000 (2024 Oct  8  0:00)
2024-179A = Vulcan Centaur test
1 61448U 24179A   24281.99919926 +00CLVKZA +000NWMRM +000DRV9LH 24777
2 61448                          +000CN524 +000183UO +0000NW0F     08

# Worst residual: 0.62 km
# MJD 60592.000000 (2024 Oct  9  0:00)
2024-179A = Vulcan Centaur test
1 61448U 24179A   24282.99919926 +00FLXUKY +000YITWY +000JIL9AH 24778
2 61448                          +000CE4RV +00018EVJ +0000NZMC     08

# Worst residual: 0.67 km
# MJD 60593.000000 (2024 Oct 10  0:00)
2024-179A = Vulcan Centaur test
1 61448U 24179A   24283.99919926 +00IKACX0 +00198X0Y +000PAU3OH 24771
2 61448                          +000C8IHG +00018ZVK +0000O8GT     00

# Worst residual: 0.74 km
# MJD 60594.000000 (2024 Oct 11  0:00)
2024-179A = Vulcan Centaur test
1 61448U 24179A   24284.99919926 +00LHJKNR +001K51AI +000V5PC2H 24775
2 61448                          +000C4VMB +00019STI +0000OL9Y     08

# Worst residual: 0.84 km
# MJD 60595.000000 (2024 Oct 12  0:00)
2024-179A = Vulcan Centaur test
1 61448U 24179A   24285.99919926 +00OE395Z +001V8VW0 +001140PYH 24774
2 61448                          +000C2IMD +0001AS0Z +0000P11L     00

# Worst residual: 0.95 km
# MJD 60596.000000 (2024 Oct 13  0:00)
2024-179A = Vulcan Centaur test
1 61448U 24179A   24286.99919926 +00RA6JI6 +0026LSGB +00176DZOH 24777
2 61448                          +000C1187 +0001BW0Q +0000PIWD     03

# Worst residual: 0.99 km
# MJD 60597.000000 (2024 Oct 14  0:00)
2024-179A = Vulcan Centaur test
1 61448U 24179A   24287.99919926 +00U5ZXJQ +002I8QED +001DD7P7H 24774
2 61448                          +000C073M +0001D3G3 +0000Q21R     05

# Worst residual: 1.13 km
# MJD 60598.000000 (2024 Oct 15  0:00)
2024-179A = Vulcan Centaur test
1 61448U 24179A   24288.99919926 +00X1ODI3 +002U6E4R +001JOPXEH 24772
2 61448                          +000BZVF6 +0001ED4N +0000QLSM     06

# Worst residual: 1.21 km
# MJD 60599.000000 (2024 Oct 16  0:00)
2024-179A = Vulcan Centaur test
1 61448U 24179A   24289.99919926 +00ZXBYHR +0036F74U +001Q4ZF1H 24772
2 61448                          +000BZZNQ +0001FO7K +0000R5M8     06

# Worst residual: 1.00 km
# MJD 60600.000000 (2024 Oct 17  0:00)
2024-179A = Vulcan Centaur test
1 61448U 24179A   24290.99919926 +012T2CPG +003IZFM5 +001WPZJVH 24772
2 61448                          +000C0IRR +0001H0CT +0000RP9Z     05

# Worst residual: 0.63 km
# MJD 60601.000000 (2024 Oct 18  0:00)
2024-179A = Vulcan Centaur test
1 61448U 24179A   24291.99919926 +015OZ3E4 +003VVDP7 +0023FP6VH 24773
2 61448                          +000C1GJV +0001IDWA +0000S8WD     05

# Worst residual: 0.91 km
# MJD 60602.000000 (2024 Oct 19  0:00)
2024-179A = Vulcan Centaur test
1 61448U 24179A   24292.99919926 +018L5PII +00493H9P +002AA5VRH 24776
2 61448                          +000C2T1Z +0001JTTH +0000SSZ1     00

# Worst residual: 1.32 km
# MJD 60603.000000 (2024 Oct 20  0:00)
2024-179A = Vulcan Centaur test
1 61448U 24179A   24293.99919926 +01BHPPY7 +004MOH00 +002H9KOFH 24774
2 61448                          +000C4K5D +0001LDLE +0000TE9E     04

# Worst residual: 1.68 km
# MJD 60604.000000 (2024 Oct 21  0:00)
2024-179A = Vulcan Centaur test
1 61448U 24179A   24294.99919926 +01EEQKR5 +0050NHE9 +002OEBV5H 24779
2 61448                          +000C6PAJ +0001N2WJ +0000U1NE     05

# Worst residual: 1.85 km
# MJD 60605.000000 (2024 Oct 22  0:00)
2024-179A = Vulcan Centaur test
1 61448U 24179A   24295.99919926 +01HCBJDO +005F21FT +002VP1EFH 24775
2 61448                          +000C97ID +0001OZDO +0000US09     01

# Worst residual: 1.82 km
# MJD 60606.000000 (2024 Oct 23  0:00)
2024-179A = Vulcan Centaur test
1 61448U 24179A   24296.99919926 +01KAJLD4 +005TY1CM +00336IAPH 24777
2 61448                          +000CC1I7 +0001R4FP +0000VM37     08

# Worst residual: 1.67 km
# MJD 60607.000000 (2024 Oct 24  0:00)
2024-179A = Vulcan Centaur test
1 61448U 24179A   24297.99919926 +01N9HE7K +0069DOCN +003AVPGBH 24770
2 61448                          +000CF5T9 +0001TJ7C +0000WKHY     07

# Worst residual: 1.52 km
# MJD 60608.000000 (2024 Oct 25  0:00)
2024-179A = Vulcan Centaur test
1 61448U 24179A   24298.99919926 +01Q978GU +006PFE8U +003ITQCSH 24778
2 61448                          +000CIIX1 +0001W8JJ +0000XNP4     09

# Worst residual: 1.45 km
# MJD 60609.000000 (2024 Oct 26  0:00)
2024-179A = Vulcan Centaur test
1 61448U 24179A   24299.99919926 +01T9R1OA +00765T9V +003R1RXBH 24779
2 61448                          +000CM3BV +0001Z93C +0000YW0Y     01

# Worst residual: 1.48 km
# MJD 60610.000000 (2024 Oct 27  0:00)
2024-179A = Vulcan Centaur test
1 61448U 24179A   24300.99919926 +01WB6EQD +007NNOFF +003ZL3M0H 24770
2 61448                          +000CPTM5 +00022LBL +000109QD     04

# Worst residual: 1.59 km
# MJD 60611.000000 (2024 Oct 28  0:00)
2024-179A = Vulcan Centaur test
1 61448U 24179A   24301.99919926 +01ZDIKEE +0085ZU5W +0048H0OUH 24772
2 61448                          +000CTOEA +000269KH +00011SZT     04

